NORAD_CAT_ID,OBJECT_NAME,OBJECT_TYPE,EPOCH,MEAN_MOTION,ECCENTRICITY,INCLINATION,RA_OF_ASC_NODE,ARG_OF_PERICENTER,MEAN_ANOMALY,BSTAR,MEAN_MOTION_DOT,MEAN_MOTION_DDOT,TLE_LINE0,TLE_LINE1,TLE_LINE2,SEMIMAJOR_AXIS,PERIOD,APOGEE,PERIGEE,DECAYED
52866.0,STARLINK-4272,PAYLOAD,2022-12-01 19:37:43,15.08858264,0.0002539,53.2194,343.6141,30.9518,329.1623,9.6227e-06,-1.35e-06,0.0,0 STARLINK-4272,1 52866U 22062AN  22335.81786908 -.00000135  00000-0  96227-5 0  9992,2 52866  53.2194 343.6141 0002539  30.9518 329.1623 15.08858264 26180,6917.825,95.436,541.446,537.933,0.0
52866.0,STARLINK-4272,PAYLOAD,2022-12-01 22:48:30,15.08844292,0.0002634,53.2192,343.0202,30.6744,329.4402,0.00011522,1.546e-05,0.0,0 STARLINK-4272,1 52866U 22062AN  22335.95035708  .00001546  00000-0  11522-3 0  9991,2 52866  53.2192 343.0202 0002634  30.6744 329.4402 15.08844292 26201,6917.8669999999975,95.437,541.554,537.91,0.0
52866.0,STARLINK-4272,PAYLOAD,2022-12-02 09:56:12,15.08843786,0.0002715,53.2186,340.9387,31.0852,329.0301,0.00010537,1.389e-05,0.0,0 STARLINK-4272,1 52866U 22062AN  22336.41403733  .00001389  00000-0  10537-3 0  9990,2 52866  53.2186 340.9387 0002715  31.0852 329.0301 15.08843786 25782,6917.869000000002,95.437,541.612,537.856,0.0
52866.0,STARLINK-4272,PAYLOAD,2022-12-02 17:53:08,15.08838204,0.0002658,53.2182,339.4499,29.169,330.945,-1.154e-05,-4.72e-06,0.0,0 STARLINK-4272,1 52866U 22062AN  22336.74523970 -.00000472  00000-0 -11540-4 0  9992,2 52866  53.2182 339.4499 0002658  29.1690 330.9450 15.08838204 26325,6917.886,95.438,541.59,537.9119999999998,0.0
52866.0,STARLINK-4272,PAYLOAD,2022-12-03 11:22:23,15.08841712,0.0002565,53.2186,336.1804,28.9144,331.1989,0.00010516,1.386e-05,0.0,0 STARLINK-4272,1 52866U 22062AN  22337.47387912  .00001386  00000-0  10516-3 0  9991,2 52866  53.2186 336.1804 0002565  28.9144 331.1989 15.08841712 25946,6917.875,95.437,541.515,537.966,0.0
52866.0,STARLINK-4272,PAYLOAD,2022-12-04 09:37:46,15.08845903,0.0002703,53.2187,332.0177,28.5242,331.5897,0.00017855,2.555e-05,0.0,0 STARLINK-4272,1 52866U 22062AN  22338.40123837  .00002555  00000-0  17855-3 0  9991,2 52866  53.2187 332.0177 0002703  28.5242 331.5897 15.08845903 26572,6917.861999999999,95.437,541.597,537.857,0.0
52866.0,STARLINK-4272,PAYLOAD,2022-12-04 11:13:09,15.08852796,0.0002736,53.2187,331.7203,29.1386,330.9759,1.1307e-05,-1.09e-06,0.0,0 STARLINK-4272,1 52866U 22062AN  22338.46747443 -.00000109  00000-0  11307-4 0  9993,2 52866  53.2187 331.7203 0002736  29.1386 330.9759 15.08852796 26095,6917.840999999999,95.437,541.599,537.814,0.0
52866.0,STARLINK-4272,PAYLOAD,2022-12-05 09:28:34,15.08844707,0.0002786,53.2187,327.5577,27.545,332.569,0.00011483,1.5399999999999998e-05,0.0,0 STARLINK-4272,1 52866U 22062AN  22339.39483797  .00001540  00000-0  11483-3 0  9998,2 52866  53.2187 327.5577 0002786  27.5450 332.5690 15.08844707 26726,6917.866,95.437,541.658,537.804,0.0
52866.0,STARLINK-4272,PAYLOAD,2022-12-06 09:19:20,15.08839522,0.000275,53.2185,323.097,27.7001,332.4137,-4.1215e-05,-9.44e-06,0.0,0 STARLINK-4272,1 52866U 22062AN  22340.38843698 -.00000944  00000-0 -41215-4 0  9995,2 52866  53.2185 323.0970 0002750  27.7001 332.4137 15.08839522 26383,6917.882,95.438,541.649,537.844,0.0
52866.0,STARLINK-4272,PAYLOAD,2022-12-06 15:40:53,15.08831105,0.0002768,53.2185,321.9072,27.3602,332.7535,-0.00015689,-2.784e-05,0.0,0 STARLINK-4272,1 52866U 22062AN  22340.65340182 -.00002784  00000-0 -15689-3 0  9994,2 52866  53.2185 321.9072 0002768  27.3602 332.7535 15.08831105 26424,6917.908,95.438,541.687,537.8580000000002,0.0
52866.0,STARLINK-4272,PAYLOAD,2022-12-06 22:02:26,15.08832315,0.0002822,53.2191,320.7171,28.6258,331.4889,-9.0567e-05,-1.729e-05,0.0,0 STARLINK-4272,1 52866U 22062AN  22340.91836361 -.00001729  00000-0 -90567-4 0  9999,2 52866  53.2191 320.7171 0002822  28.6258 331.4889 15.08832315 26950,6917.904,95.438,541.721,537.817,0.0
52866.0,STARLINK-4272,PAYLOAD,2022-12-07 15:31:41,15.08828558,0.0002689,53.219,317.4461,24.5668,335.5452,-8.668200000000001e-05,-1.667e-05,0.0,0 STARLINK-4272,1 52866U 22062AN  22341.64700923 -.00001667  00000-0 -86682-4 0  9998,2 52866  53.2190 317.4461 0002689  24.5668 335.5452 15.08828558 26578,6917.915,95.438,541.641,537.92,0.0
52866.0,STARLINK-4272,PAYLOAD,2022-12-08 02:39:23,15.08842502,0.0002685,53.2196,315.3671,29.2173,330.8969,0.00010816,1.433e-05,0.0,0 STARLINK-4272,1 52866U 22062AN  22342.11068603  .00001433  00000-0  10816-3 0  9997,2 52866  53.2196 315.3671 0002685  29.2173 330.8969 15.08842502 27132,6917.873000000001,95.437,541.595,537.88,0.0
52866.0,STARLINK-4272,PAYLOAD,2022-12-08 09:00:55,15.08842505,0.0002589,53.2187,314.1775,29.5471,330.5667,0.00025138,3.715e-05,0.0,0 STARLINK-4272,1 52866U 22062AN  22342.37564711  .00003715  00000-0  25138-3 0  9994,2 52866  53.2187 314.1775 0002589  29.5471 330.5667 15.08842505 26685,6917.873000000001,95.437,541.529,537.947,0.0
52866.0,STARLINK-4272,PAYLOAD,2022-12-08 15:22:28,15.08840048,0.0002608,53.2186,312.9873,24.7164,335.3953,0.00023829,3.506e-05,0.0,0 STARLINK-4272,1 52866U 22062AN  22342.64060807  .00003506  00000-0  23829-3 0  9994,2 52866  53.2186 312.9873 0002608  24.7164 335.3953 15.08840048 26723,6917.88,95.438,541.549,537.941,0.0
52866.0,STARLINK-4272,PAYLOAD,2022-12-09 00:54:47,15.08833854,0.0002845,53.2184,311.2039,29.8081,330.3072,9.8148e-05,1.274e-05,0.0,0 STARLINK-4272,1 52866U 22062AN  22343.03805314  .00001274  00000-0  98148-4 0  9995,2 52866  53.2184 311.2039 0002845  29.8081 330.3072 15.08833854 27279,6917.899,95.438,541.732,537.7959999999998,0.0
52866.0,STARLINK-4272,PAYLOAD,2022-12-09 07:16:20,15.08826516,0.0002583,53.2194,310.0127,22.5814,337.5291,-3.8919e-05,-9.08e-06,0.0,0 STARLINK-4272,1 52866U 22062AN  22343.30301784 -.00000908  00000-0 -38919-4 0  9992,2 52866  53.2194 310.0127 0002583  22.5814 337.5291 15.08826516 27312,6917.922,95.438,541.5740000000002,538.0,0.0
52866.0,STARLINK-4272,PAYLOAD,2022-12-10 10:17:55,15.08829913,0.0002668,53.2187,304.9585,26.104,334.0087,0.00016125,2.278e-05,0.0,0 STARLINK-4272,1 52866U 22062AN  22344.42911192  .00002278  00000-0  16125-3 0  9990,2 52866  53.2187 304.9585 0002668  26.1040 334.0087 15.08829913 27486,6917.911,95.438,541.622,537.931,0.0
52866.0,STARLINK-4272,PAYLOAD,2022-12-11 05:22:32,15.0885728,0.0002757,53.2188,301.3909,31.8442,328.2716,0.00070981,0.00011032,0.0,0 STARLINK-4272,1 52866U 22062AN  22345.22398650  .00011032  00000-0  70981-3 0  9995,2 52866  53.2188 301.3909 0002757  31.8442 328.2716 15.08857280 27602,6917.828,95.436,541.6,537.785,0.0
52866.0,STARLINK-4272,PAYLOAD,2022-12-11 08:33:19,15.088486800000002,0.0003312,53.219,300.7969,29.425,330.6928,0.0005108,7.853e-05,0.0,0 STARLINK-4272,1 52866U 22062AN  22345.35646999  .00007853  00000-0  51080-3 0  9996,2 52866  53.2190 300.7969 0003312  29.4250 330.6928 15.08848680 27620,6917.854,95.437,542.01,537.428,0.0
52866.0,STARLINK-4272,PAYLOAD,2022-12-12 06:48:41,15.08854763,0.0002487,53.2186,296.6333,27.8414,332.2711,0.00022487,3.294e-05,0.0,0 STARLINK-4272,1 52866U 22062AN  22346.28381909  .00003294  00000-0  22487-3 0  9990,2 52866  53.2186 296.6333 0002487  27.8414 332.2711 15.08854763 27277,6917.835,95.437,541.4209999999998,537.98,0.0
52866.0,STARLINK-4272,PAYLOAD,2022-12-12 21:07:09,15.08849267,0.0002628999999999,53.2186,293.9572,28.6914,331.4222,-2.7281e-05,-7.23e-06,0.0,0 STARLINK-4272,1 52866U 22062AN  22346.87997626 -.00000723  00000-0 -27281-4 0  9998,2 52866  53.2186 293.9572 0002629  28.6914 331.4222 15.08849267 27365,6917.852,95.437,541.536,537.898,0.0
52866.0,STARLINK-4272,PAYLOAD,2022-12-13 05:04:05,15.0884421,0.0002726,53.2188,292.4707,30.0885,330.0264,-0.00012387,-2.26e-05,0.0,0 STARLINK-4272,1 52866U 22062AN  22347.21117868 -.00002260  00000-0 -12387-3 0  9997,2 52866  53.2188 292.4707 0002726  30.0885 330.0264 15.08844210 27907,6917.868,95.437,541.618,537.847,0.0
52866.0,STARLINK-4272,PAYLOAD,2022-12-13 13:01:01,15.08845907,0.0002677,53.2186,290.9842,30.5771,329.5377,-9.2585e-05,-1.762e-05,0.0,0 STARLINK-4272,1 52866U 22062AN  22347.54237612 -.00001762  00000-0 -92585-4 0  9998,2 52866  53.2186 290.9842 0002677  30.5771 329.5377 15.08845907 27465,6917.861999999999,95.437,541.5790000000002,537.875,0.0
52866.0,STARLINK-4272,PAYLOAD,2022-12-13 20:57:57,15.08844478,0.0002672,53.2189,289.4967,29.6016,330.5127,5.5228e-06,-2.01e-06,0.0,0 STARLINK-4272,1 52866U 22062AN  22347.87357838 -.00000201  00000-0  55228-5 0  9997,2 52866  53.2189 289.4967 0002672  29.6016 330.5127 15.08844478 27518,6917.8669999999975,95.437,541.58,537.883,0.0
52866.0,STARLINK-4272,PAYLOAD,2022-12-14 12:51:49,15.08829548,0.0002749,53.219,286.5235,29.184,330.9305,-2.9476e-05,-7.57e-06,0.0,0 STARLINK-4272,1 52866U 22062AN  22348.53598987 -.00000757  00000-0 -29476-4 0  9995,2 52866  53.2190 286.5235 0002749  29.1840 330.9305 15.08829548 28100,6917.9119999999975,95.438,541.679,537.876,0.0
52866.0,STARLINK-4272,PAYLOAD,2022-12-14 19:13:21,15.08835778,0.000275,53.218,285.3324,30.0553,330.0597,1.1997e-05,-9.8e-07,0.0,0 STARLINK-4272,1 52866U 22062AN  22348.80094569 -.00000098  00000-0  11997-4 0  9998,2 52866  53.2180 285.3324 0002750  30.0553 330.0597 15.08835778 27654,6917.893,95.438,541.661,537.856,0.0
52866.0,STARLINK-4272,PAYLOAD,2022-12-14 22:24:07,15.08838835,0.0002785,53.2193,284.7398,27.5336,332.5803,8.0098e-05,9.86e-06,0.0,0 STARLINK-4272,1 52866U 22062AN  22348.93342261  .00000986  00000-0  80098-4 0  9990,2 52866  53.2193 284.7398 0002785  27.5336 332.5803 15.08838835 28161,6917.884,95.438,541.6759999999998,537.822,0.0
52866.0,STARLINK-4272,PAYLOAD,2022-12-15 04:45:39,15.08846297,0.0002774,53.2188,283.5501,30.323,329.7922,0.00018465,2.652e-05,0.0,0 STARLINK-4272,1 52866U 22062AN  22349.19837692  .00002652  00000-0  18465-3 0  9996,2 52866  53.2188 283.5501 0002774  30.3230 329.7922 15.08846297 28207,6917.861,95.437,541.645,537.807,0.0
